#aV2019 12  9  0  0  0.00000000     288 DD+AD WGS84 FIT  NGA
## 2083  86400.00000000   300.00000000 58826 0.0000000000000
+   32     1  2  3  4  5  6  7  8  9 10 11 12 13 14 15 16 17
+         18 19 20 21 22 23 24 25 26 27 28 29 30 31 32  0  0
+          0  0  0  0  0  0  0  0  0  0  0  0  0  0  0  0  0
+          0  0  0  0  0  0  0  0  0  0  0  0  0  0  0  0  0
+          0  0  0  0  0  0  0  0  0  0  0  0  0  0  0  0  0
++         2  2  2  2  2  2  2  2  2  2  2  2  2  2  2  2  2
++         2  2  2  2  2  2  2  2  2  2  2  2  2  2  2  0  0
++         0  0  0  0  0  0  0  0  0  0  0  0  0  0  0  0  0
++         0  0  0  0  0  0  0  0  0  0  0  0  0  0  0  0  0
++         0  0  0  0  0  0  0  0  0  0  0  0  0  0  0  0  0
%c cc cc ccc ccc cccc cccc cccc cccc ccccc ccccc ccccc ccccc
%c cc cc ccc ccc cccc cccc cccc cccc ccccc ccccc ccccc ccccc
%f  0.0000000  0.000000000  0.00000000000  0.000000000000000
%f  0.0000000  0.000000000  0.00000000000  0.000000000000000
%i    0    0    0    0      0      0      0      0         0
%i    0    0    0    0      0      0      0      0         0
/*      NGA, ST. LOUIS,MO.                                  
/*   EPHEMERIS COMPUTED FROM 2 DAYS OF DATA                 
/*   EPOCHA v5 SMOOTHER                                     
/*   G1762 IERS2010 SATAF SATAPC                            
*  2019 12  9 17 55  0.00000000
P  1 -14494.533201   2673.354009  21894.099810   -224.259886                    
V  1  -6002.746714 -27592.105883   -289.303737     -0.123766                    
P  2  13879.054845  19347.743075 -11253.211156   -363.063836                    
V  2   1769.753905  15337.491299  26942.522281     -0.074744                    
P  3 -22017.123628  11760.920674   8885.009352    -50.036067                    
V  3   6678.856017  -9574.357237  29114.506851     -0.065941                    
P  4 -22579.383502   2230.069479 -13693.686584    -18.553489                    
V  4 -15760.426144  -7954.357455  24638.160167     -0.047982                    
P  5  15104.718487   6310.593251 -21083.348903     -4.476668                    
V  5 -18551.468888  18876.023810  -7498.258829     -0.004948                    
P  6   6067.629044  25837.207652   -471.466668   -148.625036                    
V  6  -2098.278957   1139.525883  32144.498273     -0.112518                    
P  7  -7495.468362  19422.845104 -15927.405283   -166.379433                    
V  7  -6609.824275 -20033.408366 -21419.705269     -0.081851                    
P  8 -25921.259682  -5354.185833   3412.063656    -16.176908                    
V  8  -3411.802228  -3434.920079 -31421.160105     -0.013519                    
P  9 -15429.253764   9750.644920 -19351.686364   -103.992432                    
V  9 -23053.294462  -8358.088879  14199.617498     -0.094278                    
P 10   6597.572532 -20560.745293  15377.846266   -165.932215                    
V 10  15741.315872 -11678.810759 -22687.482255     -0.143206                    
P 11 -17633.077513   1759.889611  19200.965530   -424.239638                    
V 11 -14600.833872 -21291.657798 -11480.055353      0.110584                    
P 12  22150.378308  -6834.132235  12593.837109    174.972087                    
V 12 -11582.627974  11740.436459  26451.640564     -0.039956                    
P 13  22771.168946  13284.730093  -3673.860767    -27.719399                    
V 13  -5131.544092    383.718807 -31402.723950      0.024145                    
P 14 -13918.812596 -17150.080107  15206.612982    -45.808126                    
V 14  17983.475481   5330.331633  22786.878150      0.022146                    
P 15  26339.374253   2786.230175   3570.131597   -266.867778                    
V 15   4044.872558   4431.488125 -30321.157041      0.026808                    
P 16 -13151.211085  -8305.756600 -21782.397618   -101.334248                    
V 16  21374.271308 -16615.902376  -6196.230268     -0.038561                    
P 17   3136.745346  16265.885600  21204.110535    177.766770                    
V 17 -24381.776095  -8648.033271  10384.760957      0.067860                    
P 18 -16121.278103  -6318.872458  19663.524429    105.600558                    
V 18  -5762.938850 -25451.722390 -12494.435433      0.024499                    
P 19  10925.199916  17027.297747  16908.212479   -228.602699                    
V 19 -20767.034853  -7394.687561  20526.485692      0.051956                    
P 20  13495.104951 -22091.825466   5347.265537    527.625654                    
V 20   7398.517109  -2885.003685 -30234.373466      0.000658                    
P 21   3327.877802 -22444.885202 -13183.267763    -73.453721                    
V 21   7418.464897  16591.018933 -24692.088544      0.057944                    
P 22 -20962.046567   5488.502137  15507.888604   -776.637965                    
V 22  11331.264164 -16017.392450  21387.515293     -0.020660                    
P 23 -23046.467299   2978.349025 -12857.026259   -150.587237                    
V 23 -15394.206688  -7145.812035  24876.461573      0.023364                    
P 24  15882.877789   -771.847617  21125.486838     -5.992789                    
V 24   7068.170009  26368.613688  -3957.778803     -0.005050                    
P 25  19635.077671 -17662.484879    234.607663    -17.396541                    
V 25   1489.952901   2469.228583  32084.819256      0.001108                    
P 26  -5173.782611 -15711.638127 -20759.530653    102.067018                    
V 26  19614.745542 -17699.484794   8718.923774      0.082040                    
P 27 -22271.929253 -12567.333107  -7869.525597   -145.281496                    
V 27   9839.084402   1168.161454 -29840.963389     -0.116797                    
P 28  -7221.041795  19736.564497  16921.931690    751.406251                    
V 28 -16857.993986  11288.893376 -20999.759661     -0.019023                    
P 29  16547.055743  -7361.183878 -19465.321306     22.889205                    
V 29  22536.773028   9862.943008  15428.528015     -0.098379                    
P 30   -261.680194  25613.374351  -6598.265033   -102.158489                    
V 30  -4934.630453  -7733.076133 -29882.075593     -0.085741                    
P 31  -7026.066591 -25169.332238  -3080.374578     -8.677199                    
V 31   2441.868381  -4474.939953  31694.789664     -0.025383                    
P 32  -4392.512591 -16466.051855  20464.274587    150.416107                    
V 32  24957.039172   6729.621517  10672.114662      0.115173                    
EOF
